ONEWEB-0555             
1 56057U 23043M   26121.31714332  .00003837  00000+0  10003-1 0  9996
2 56057  87.9091 238.0778 0001817 122.4760 237.6547 13.16574840152790
ONEWEB-0557             
1 56058U 23043N   26120.87541477 -.00000061  00000+0 -19222-3 0  9997
2 56058  87.9090 238.1763 0002888 122.8456 237.2953 13.16594381152733
ONEWEB-0558             
1 56059U 23043P   26121.28521677 -.00000005  00000+0 -43106-4 0  9991
2 56059  87.9221 253.3152 0001671  87.0092 273.1233 13.21824044152040
ONEWEB-0559             
1 56060U 23043Q   26120.81926539 -.00000080  00000+0 -22447-3 0  9994
2 56060  87.9225 253.4019 0001820  93.0802 267.0540 13.21824360151998
ONEWEB-0566             
1 56061U 23043R   26121.26671537  .00000021  00000+0  20118-4 0  9997
2 56061  87.9227 253.3114 0001772  89.9014 270.2323 13.21824239152037
ONEWEB-0568             
1 56062U 23043S   26121.27280691 -.00000016  00000+0 -74606-4 0  9993
2 56062  87.9087 238.0880 0001844 111.0066 249.1263 13.16595585152802
ONEWEB-0574             
1 56063U 23043T   26120.88152093 -.00000029  00000+0 -10181-3 0  9995
2 56063  87.9233 253.3868 0002044 104.6077 255.5284 13.21826702152027
ONEWEB-0575             
1 56064U 23043U   26121.26648359  .00000003  00000+0 -26772-4 0  9999
2 56064  87.9087 238.0853 0002242 111.7479 248.3891 13.16595528152795
ONEWEB-0576             
1 56065U 23043V   26121.24748538  .00000099  00000+0  22632-3 0  9992
2 56065  87.9091 238.0956 0002059 107.6434 252.4922 13.16594808152786
ONEWEB-0577             
1 56066U 23043W   26121.25381244  .00000052  00000+0  10302-3 0  9991
2 56066  87.9091 238.0919 0002642 111.5069 248.6344 13.16595060152812
ONEWEB-0578             
1 56067U 23043X   26121.32223776  .00000027  00000+0  33568-4 0  9997
2 56067  87.9228 253.3003 0001774 110.0634 250.0691 13.21826432152049
ONEWEB-0579             
1 56068U 23043Y   26121.31382637  .00000108  00000+0  23116-3 0  9996
2 56068  87.9234 253.2965 0001982  92.9083 267.2278 13.21827728152051
ONEWEB-0581             
1 56069U 23043Z   26121.26014646  .00000029  00000+0  41195-4 0  9993
2 56069  87.9090 238.1024 0002460 108.2424 251.8975 13.16594370152783
ONEWEB-0609             
1 56070U 23043AA  26120.94978515 -.00000019  00000+0 -83960-4 0  9990
2 56070  87.8955 268.6326 0001708  97.4011 262.7313 13.15549545150229
ONEWEB-0613             
1 56071U 23043AB  26120.94741442  .00000048  00000+0  92193-4 0  9996
2 56071  87.8954 268.6451 0001817  88.7394 271.3944 13.15547957150227
ONEWEB-0630             
1 56072U 23043AC  26120.94265913  .00000062  00000+0  12982-3 0  9994
2 56072  87.8956 268.6165 0001864  90.0491 270.0852 13.15547791150217
ONEWEB-0632             
1 56073U 23043AD  26120.93790630  .00000075  00000+0  16467-3 0  9999
2 56073  87.8956 268.6354 0001983  99.9117 260.2237 13.15548643150218
ONEWEB-0633             
1 56074U 23043AE  26121.15972548  .00000156  00000+0  38080-3 0  9990
2 56074  87.8968 268.5628 0001667  84.8202 275.3119 13.15547924150220
ONEWEB-0634             
1 56075U 23043AF  26120.91730178 -.00000039  00000+0 -13865-3 0  9991
2 56075  87.8956 268.6554 0001528 104.3362 255.7938 13.15548697150182
ONEWEB-0635             
1 56076U 23043AG  26120.83649545 -.00000028  00000+0 -10868-3 0  9998
2 56076  87.8965 268.6299 0002078 101.7393 258.3971 13.15548123150208
ONEWEB-0636             
1 56077U 23043AH  26120.82856902 -.00000142  00000+0 -41177-3 0  9999
2 56077  87.8956 268.6412 0002012 101.4908 258.6448 13.15547865150184
ONEWEB-0637             
1 56078U 23043AJ  26120.97434322 -.00000225  00000+0 -63060-3 0  9991
2 56078  87.8955 268.6296 0001841 108.5993 251.5338 13.15547965150221
ONEWEB-0647             
1 56079U 23043AK  26120.96957853 -.00000137  00000+0 -39770-3 0  9993
2 56079  87.8956 268.6427 0001946  96.5571 263.5781 13.15549017150217
ONEWEB-0651             
1 56080U 23043AL  26121.26906791  .00000024  00000+0  29592-4 0  9999
2 56080  87.8956 268.5774 0001983 104.7945 255.3406 13.15548732151454
ONEWEB-0718             
1 56081U 23043AM  26120.88403406 -.00000111  00000+0 -33018-3 0  9998
2 56081  87.8957 268.6348 0001290 101.1123 259.0152 13.15547730150213
ONEWEB-0561             
1 56710U 23068A   26121.00128218 -.00000097  00000+0 -26935-3 0  9997
2 56710  87.9144 283.8582 0002231  95.6888 264.4500 13.20770556143276
ONEWEB-0668             
1 56711U 23068B   26120.85482669  .00000024  00000+0  28089-4 0  9994
2 56711  87.9094 238.1699 0001580 117.0919 243.0374 13.16594940145554
ONEWEB-0676             
1 56712U 23068C   26120.86274543  .00000006  00000+0 -18001-4 0  9990
2 56712  87.9090 238.1755 0002212 105.7569 254.3806 13.16593758145474
ONEWEB-0677             
1 56713U 23068D   26120.99023331  .00000016  00000+0  77353-5 0  9998
2 56713  87.9145 283.8527 0001835 107.7741 252.3593 13.20769996143578
ONEWEB-0678             
1 56714U 23068E   26120.85233442  .00000156  00000+0  38058-3 0  9992
2 56714  87.8963 268.6287 0001963  90.7260 269.4095 13.15548822143066
ONEWEB-0679             
1 56715U 23068F   26121.27756017  .00000006  00000+0 -16673-4 0  9993
2 56715  87.9094 238.0834 0002036 119.1186 241.0149 13.16594751145552
ONEWEB-0680             
1 56716U 23068G   26121.31551630  .00000116  00000+0  25004-3 0  9991
2 56716  87.9236 253.2977 0001698 117.1755 242.9552 13.21824442144906
ONEWEB-0681             
1 56717U 23068H   26121.29616007  .00000040  00000+0  64432-4 0  9994
2 56717  87.9226 253.3056 0002841 106.9130 253.2316 13.21828589144896
ONEWEB-0682             
1 56718U 23068J   26120.95214778  .00000002  00000+0 -29847-4 0  9996
2 56718  87.8964 268.6104 0001566 115.0563 245.0730 13.15549160143247
ONEWEB-0683             
1 56719U 23068K   26120.82381832 -.00000146  00000+0 -42301-3 0  9998
2 56719  87.8965 268.6339 0001587 103.6440 256.4867 13.15548398143192
ONEWEB-0684             
1 56720U 23068L   26120.83173128 -.00000042  00000+0 -14592-3 0  9994
2 56720  87.8964 268.6237 0002079  58.2537 301.8796 13.15549067143021
ONEWEB-0686             
1 56721U 23068M   26121.31397314  .00000127  00000+0  29936-3 0  9994
2 56721  87.9079 238.1053 0001519 100.2312 259.8990 13.16594511145547
ONEWEB-0694             
1 56722U 23068N   26121.32030045  .00000082  00000+0  18172-3 0  9991
2 56722  87.9101 238.0593 0001664 115.2195 244.9109 13.16596061145604
ONEWEB-0696             
1 56723U 23068P   26120.86500931  .00000068  00000+0  14702-3 0  9995
2 56723  87.8956 268.6589 0001983  86.0467 274.0890 13.15548943143140
ONEWEB-0703             
1 56724U 23068Q   26120.87451686  .00000034  00000+0  57170-4 0  9999
2 56724  87.8957 268.6381 0002597  86.9330 273.2097 13.15549666143033
ONEWEB-0721             
1 56725U 23068R   26121.23115620 -.00000007  00000+0 -52561-4 0  9997
2 56725  86.6728 100.5048 0001963  85.5848 274.5509 13.22466282151734
ONEWEB-0015             
1 61594U 24188A   26121.15804965 -.00000470  00000+0 -13631-2 0  9996
2 61594  87.8926  30.4444 0002012  95.8964 264.2393 13.11417380 78296
ONEWEB-0687             
1 61595U 24188B   26121.15035846  .00000113  00000+0  25803-3 0  9998
2 61595  87.9172  15.2267 0001531  97.6351 262.4954 13.17647932 79704
ONEWEB-0688             
1 61596U 24188C   26121.25498707  .00000064  00000+0  13241-3 0  9997
2 61596  87.9173  15.2057 0002462 110.0077 250.1320 13.17649222 79718
ONEWEB-0689             
1 61597U 24188D   26121.26827367  .00000556  00000+0  15339-2 0  9992
2 61597  87.8946  30.3724 0001485  81.7395 278.3901 13.11418251 78307
ONEWEB-0690             
1 61598U 24188E   26121.27846026  .00000525  00000+0  14453-2 0  9999
2 61598  87.8933  30.3866 0002430  71.9384 288.2009 13.11415179 78485
ONEWEB-0691             
1 61599U 24188F   26121.27336972  .00000588  00000+0  16239-2 0  9997
2 61599  87.8944  30.2918 0001845  91.9193 268.2146 13.11417151 78330
ONEWEB-0692             
1 61600U 24188G   26121.29369839 -.00000022  00000+0 -98094-4 0  9996
2 61600  87.8922  30.4097 0001420  52.7189 307.4068 13.11415038 78328
ONEWEB-0693             
1 61601U 24188H   26121.11492836  .00000024  00000+0  28481-4 0  9995
2 61601  87.9170  15.2546 0002624  77.2691 282.8734 13.17648259 79687
ONEWEB-0695             
1 61602U 24188J   26121.26996933  .00000609  00000+0  16831-2 0  9992
2 61602  87.8923  30.4064 0001318  69.7420 290.3849 13.11417967 78316
ONEWEB-0697             
1 61603U 24188K   26121.14958010 -.00000362  00000+0 -10562-2 0  9997
2 61603  87.8924  30.4200 0001546  53.3901 306.7369 13.11416140 78283
ONEWEB-0698             
1 61604U 24188L   26121.20384424  .00000509  00000+0  14015-2 0  9995
2 61604  87.8922  30.4244 0002409  50.5558 309.5783 13.11416844 78312
ONEWEB-0699             
1 61605U 24188M   26121.25565745  .00000187  00000+0  49976-3 0  9995
2 61605  87.8851  45.6048 0001698  57.3010 302.8281 13.10370978 77168
ONEWEB-0700             
1 61606U 24188N   26121.25731016  .00000125  00000+0  32323-3 0  9992
2 61606  87.8868  45.5054 0001345  62.0643 298.0621 13.10370064 77156
ONEWEB-0701             
1 61607U 24188P   26121.27390020 -.00000539  00000+0 -15801-2 0  9993
2 61607  87.8850  45.5991 0001677  50.9704 309.1572 13.10373090 77162
ONEWEB-0702             
1 61608U 24188Q   26121.24960194 -.00000078  00000+0 -25626-3 0  9991
2 61608  87.8944  30.3123 0001271  46.0006 314.1227 13.11416348 78335
ONEWEB-0704             
1 61609U 24188R   26121.26228624 -.00000167  00000+0 -51367-3 0  9999
2 61609  87.8869  45.5854 0001062  47.8163 312.3055 13.10368601 77146
ONEWEB-0705             
1 61610U 24188S   26121.26726145 -.00000384  00000+0 -11378-2 0  9990
2 61610  87.8861  45.5924 0000851 104.3617 255.7605 13.10368184 69313
ONEWEB-0706             
1 61611U 24188T   26121.25233545  .00000353  00000+0  97508-3 0  9991
2 61611  87.8851  45.6038 0001304  69.0601 291.0666 13.10370670 77237
